NORAD_CAT_ID,OBJECT_NAME,OBJECT_TYPE,EPOCH,MEAN_MOTION,ECCENTRICITY,INCLINATION,RA_OF_ASC_NODE,ARG_OF_PERICENTER,MEAN_ANOMALY,BSTAR,MEAN_MOTION_DOT,MEAN_MOTION_DDOT,TLE_LINE0,TLE_LINE1,TLE_LINE2,SEMIMAJOR_AXIS,PERIOD,APOGEE,PERIGEE,DECAYED
51803.0,STARLINK-3544,PAYLOAD,2024-02-22 19:29:10,15.0884109,0.0001374,53.216,97.4967,87.7521,272.3628,6.5471e-05,7.54e-06,0.0,0 STARLINK-3544,1 51803U 22017AM  24053.81192188  .00000754  00000-0  65471-4 0  9994,2 51803  53.2160  97.4967 0001374  87.7521 272.3628 15.08841090111316,6917.877,95.437,540.693,538.792,0.0
51803.0,STARLINK-3544,PAYLOAD,2024-02-23 09:47:37,15.08852034,0.0001329,53.2155,94.8211,89.471,270.6435,0.00018206,2.612e-05,0.0,0 STARLINK-3544,1 51803U 22017AM  24054.40807561  .00002612  00000-0  18206-3 0  9996,2 51803  53.2155  94.8211 0001329  89.4710 270.6435 15.08852034111409,6917.844,95.437,540.628,538.789,0.0
51803.0,STARLINK-3544,PAYLOAD,2024-02-23 19:19:56,15.088439,0.0001243,53.2147,93.0374,92.0786,268.0348,0.00010678,1.412e-05,0.0,0 STARLINK-3544,1 51803U 22017AM  24054.80551773  .00001412  00000-0  10678-3 0  9993,2 51803  53.2147  93.0374 0001243  92.0786 268.0348 15.08843900111461,6917.868,95.437,540.593,538.874,0.0
51803.0,STARLINK-3544,PAYLOAD,2024-02-24 01:41:29,15.08838622,0.0001414,53.2162,91.8488,96.5353,263.58,0.00015506,2.181e-05,0.0,0 STARLINK-3544,1 51803U 22017AM  24055.07048274  .00002181  00000-0  15506-3 0  9999,2 51803  53.2162  91.8488 0001414  96.5353 263.5800 15.08838622111502,6917.885,95.438,540.728,538.771,0.0
51803.0,STARLINK-3544,PAYLOAD,2024-02-24 09:38:25,15.08835351,0.0001354,53.2155,90.3616,91.471,268.6438,3.0978e-05,2.05e-06,0.0,0 STARLINK-3544,1 51803U 22017AM  24055.40168515  .00000205  00000-0  30978-4 0  9993,2 51803  53.2155  90.3616 0001354  91.4710 268.6438 15.08835351111559,6917.895,95.438,540.696,538.823,0.0
51803.0,STARLINK-3544,PAYLOAD,2024-02-24 19:10:44,15.08840605,0.0001574,53.2173,88.5775,94.4844,265.6328,7.7671e-05,9.48e-06,0.0,0 STARLINK-3544,1 51803U 22017AM  24055.79912343  .00000948  00000-0  77671-4 0  9996,2 51803  53.2173  88.5775 0001574  94.4844 265.6328 15.08840605111619,6917.879,95.438,540.832,538.655,0.0
51803.0,STARLINK-3544,PAYLOAD,2024-02-25 09:29:12,15.08846535,0.0001627,53.2185,85.8996,96.2974,263.8204,4.9811e-05,5.05e-06,0.0,0 STARLINK-3544,1 51803U 22017AM  24056.39528290  .00000505  00000-0  49811-4 0  9991,2 51803  53.2185  85.8996 0001627  96.2974 263.8204 15.08846535111701,6917.86,95.437,540.851,538.6,0.0
51803.0,STARLINK-3544,PAYLOAD,2024-02-25 19:01:31,15.08834062,0.0001746,53.2183,84.1143,91.9629,268.1563,0.00023267,3.416e-05,0.0,0 STARLINK-3544,1 51803U 22017AM  24056.79272882  .00003416  00000-0  23267-3 0  9998,2 51803  53.2183  84.1143 0001746  91.9629 268.1563 15.08834062111760,6917.899,95.438,540.971,538.556,0.0
51803.0,STARLINK-3544,PAYLOAD,2024-02-26 09:19:59,15.08843097,0.0001645,53.2166,81.4387,83.8726,276.2453,0.00017359,2.476e-05,0.0,0 STARLINK-3544,1 51803U 22017AM  24057.38888471  .00002476  00000-0  17359-3 0  9991,2 51803  53.2166  81.4387 0001645  83.8726 276.2453 15.08843097111853,6917.871,95.437,540.874,538.598,0.0
51803.0,STARLINK-3544,PAYLOAD,2024-02-27 10:46:09,15.08846314,0.0001597,53.2173,76.6811,91.0055,269.112,9.9259e-05,1.292e-05,0.0,0 STARLINK-3544,1 51803U 22017AM  24058.44872228  .00001292  00000-0  99259-4 0  9997,2 51803  53.2173  76.6811 0001597  91.0055 269.1120 15.08846314112017,6917.861,95.437,540.831,538.621,0.0
51803.0,STARLINK-3544,PAYLOAD,2024-02-27 18:43:06,15.08835061,0.00017,53.2193,75.1889,96.0497,264.0689,1.3686e-05,-7e-07,0.0,0 STARLINK-3544,1 51803U 22017AM  24058.77993120 -.00000070  00000-0  13686-4 0  9992,2 51803  53.2193  75.1889 0001700  96.0497 264.0689 15.08835061112065,6917.895,95.438,540.937,538.584,0.0
51803.0,STARLINK-3544,PAYLOAD,2024-02-28 10:36:55,15.08862149,0.0001391,53.2177,72.2158,114.2502,245.8636,0.00013593,1.877e-05,0.0,0 STARLINK-3544,1 51803U 22017AM  24059.44230828  .00001877  00000-0  13593-3 0  9997,2 51803  53.2177  72.2158 0001391 114.2502 245.8636 15.08862149112167,6917.813,95.436,540.64,538.715,0.0
51803.0,STARLINK-3544,PAYLOAD,2024-02-29 04:06:11,15.08839833,0.0001855,53.2165,68.946,114.6489,245.4697,3.1636e-05,2.15e-06,0.0,0 STARLINK-3544,1 51803U 22017AM  24060.17096532  .00000215  00000-0  31636-4 0  9995,2 51803  53.2165  68.9460 0001855 114.6489 245.4697 15.08839833112274,6917.881,95.438,541.029,538.463,0.0
51803.0,STARLINK-3544,PAYLOAD,2024-02-29 07:16:57,15.08838299,0.0001419,53.2169,68.3526,98.5222,261.5931,2.0128e-05,3.2e-07,0.0,0 STARLINK-3544,1 51803U 22017AM  24060.30344782  .00000032  00000-0  20128-4 0  9994,2 51803  53.2169  68.3526 0001419  98.5222 261.5931 15.08838299112293,6917.886,95.438,540.732,538.769,0.0
51803.0,STARLINK-3544,PAYLOAD,2024-02-29 23:10:49,15.08829627,0.0001411,53.217,65.3805,92.9647,267.1506,4.7018e-05,4.6e-06,0.0,0 STARLINK-3544,1 51803U 22017AM  24060.96585520  .00000460  00000-0  47018-4 0  9995,2 51803  53.2170  65.3805 0001411  92.9647 267.1506 15.08829627112399,6917.912,95.438,540.753,538.801,0.0
51803.0,STARLINK-3544,PAYLOAD,2024-03-01 03:56:59,15.08829093,0.0001361,53.2162,64.4873,96.7541,263.3606,8.3664e-05,1.043e-05,0.0,0 STARLINK-3544,1 51803U 22017AM  24061.16457487  .00001043  00000-0  83664-4 0  9993,2 51803  53.2162  64.4873 0001361  96.7541 263.3606 15.08829093112424,6917.914,95.438,540.72,538.837,0.0
51803.0,STARLINK-3544,PAYLOAD,2024-03-01 07:07:45,15.08836715,0.0001528,53.2165,63.894,95.3231,264.7935,2.113e-05,4.8e-07,0.0,0 STARLINK-3544,1 51803U 22017AM  24061.29705294  .00000048  00000-0  21130-4 0  9993,2 51803  53.2165  63.8940 0001528  95.3231 264.7935 15.08836715112442,6917.89,95.438,540.812,538.698,0.0
51803.0,STARLINK-3544,PAYLOAD,2024-03-02 03:47:46,15.08834491,0.0001394,53.2172,60.0284,99.4803,260.6346,9.7009e-05,1.256e-05,0.0,0 STARLINK-3544,1 51803U 22017AM  24062.15817329  .00001256  00000-0  97009-4 0  9992,2 51803  53.2172  60.0284 0001394  99.4803 260.6346 15.08834491112575,6917.897,95.438,540.727,538.798,0.0
51803.0,STARLINK-3544,PAYLOAD,2024-03-02 05:23:09,15.08836098,0.0001403,53.2172,59.7311,99.533,260.5821,0.00011109,1.48e-05,0.0,0 STARLINK-3544,1 51803U 22017AM  24062.22441260  .00001480  00000-0  11109-3 0  9992,2 51803  53.2172  59.7311 0001403  99.5330 260.5821 15.08836098112581,6917.892,95.438,540.728,538.787,0.0
51803.0,STARLINK-3544,PAYLOAD,2024-03-03 08:24:42,15.08838826,0.0001324,53.2169,54.6738,88.4259,271.6885,8.9736e-05,1.14e-05,0.0,0 STARLINK-3544,1 51803U 22017AM  24063.35049658  .00001140  00000-0  89736-4 0  9997,2 51803  53.2169  54.6738 0001324  88.4259 271.6885 15.08838826112756,6917.884,95.438,540.665,538.833,0.0
51803.0,STARLINK-3544,PAYLOAD,2024-03-04 03:29:19,15.08848385,0.0001354,53.2174,51.1036,86.2121,273.9026,0.000158,2.228e-05,0.0,0 STARLINK-3544,1 51803U 22017AM  24064.14536812  .00002228  00000-0  15800-3 0  9996,2 51803  53.2174  51.1036 0001354  86.2121 273.9026 15.08848385112878,6917.855,95.437,540.656,538.783,0.0
51803.0,STARLINK-3544,PAYLOAD,2024-03-04 06:40:06,15.08821628,0.0001778,53.2187,50.5105,81.4406,278.6787,0.00071978,0.0001118,0.0,0 STARLINK-3544,1 51803U 22017AM  24064.27785428  .00011180  00000-0  71978-3 0  9994,2 51803  53.2187  50.5105 0001778  81.4406 278.6787 15.08821628112894,6917.937,95.439,541.032,538.572,0.0
51803.0,STARLINK-3544,PAYLOAD,2024-03-04 16:12:25,15.08840839,0.0001613,53.2193,48.7234,88.3214,271.7962,7.7257e-05,9.42e-06,0.0,0 STARLINK-3544,1 51803U 22017AM  24064.67529242  .00000942  00000-0  77257-4 0  9999,2 51803  53.2193  48.7234 0001613  88.3214 271.7962 15.08840839112955,6917.878,95.438,540.859,538.627,0.0
51803.0,STARLINK-3544,PAYLOAD,2024-03-05 04:55:31,15.08829867,0.0001834,53.2188,46.342,88.5363,271.5839,-8.9566e-05,-1.713e-05,0.0,0 STARLINK-3544,1 51803U 22017AM  24065.20522129 -.00001713  00000-0 -89566-4 0  9991,2 51803  53.2188  46.3420 0001834  88.5363 271.5839 15.08829867113031,6917.911,95.438,541.045,538.508,0.0
51803.0,STARLINK-3544,PAYLOAD,2024-03-05 16:03:12,15.08840799,0.000172,53.2196,44.2645,85.3902,274.7287,7.6947e-05,9.37e-06,0.0,0 STARLINK-3544,1 51803U 22017AM  24065.66889897  .00000937  00000-0  76947-4 0  9993,2 51803  53.2196  44.2645 0001720  85.3902 274.7287 15.08840799113101,6917.878,95.438,540.933,538.553,0.0
51803.0,STARLINK-3544,PAYLOAD,2024-03-06 04:46:17,15.08852863,0.0001475,53.2169,41.8858,87.2101,272.906,0.00020528,2.982e-05,0.0,0 STARLINK-3544,1 51803U 22017AM  24066.19881046  .00002982  00000-0  20528-3 0  9995,2 51803  53.2169  41.8858 0001475  87.2101 272.9060 15.08852863113181,6917.841,95.437,540.726,538.686,0.0
51803.0,STARLINK-3544,PAYLOAD,2024-03-07 04:37:05,15.08830809,0.0001389,53.2175,37.4265,94.3338,265.7813,9.8289e-05,1.276e-05,0.0,0 STARLINK-3544,1 51803U 22017AM  24067.19242084  .00001276  00000-0  98289-4 0  9994,2 51803  53.2175  37.4265 0001389  94.3338 265.7813 15.08830809113335,6917.908,95.438,540.734,538.813,0.0
51803.0,STARLINK-3544,PAYLOAD,2024-03-08 04:27:52,15.08841108,0.0001268,53.218,32.9679,92.5304,267.5833,4.5463e-05,4.36e-06,0.0,0 STARLINK-3544,1 51803U 22017AM  24068.18601929  .00000436  00000-0  45463-4 0  9994,2 51803  53.2180  32.9679 0001268  92.5304 267.5833 15.08841108113481,6917.877,95.437,540.619,538.865,0.0
51803.0,STARLINK-3544,PAYLOAD,2024-03-08 14:00:10,15.08850046,0.0001497,53.2183,31.1843,95.8297,264.2865,9.8239e-05,1.276e-05,0.0,0 STARLINK-3544,1 51803U 22017AM  24068.58345275  .00001276  00000-0  98239-4 0  9999,2 51803  53.2183  31.1843 0001497  95.8297 264.2865 15.08850046113546,6917.85,95.437,540.75,538.679,0.0
51803.0,STARLINK-3544,PAYLOAD,2024-03-08 21:57:06,15.08835454,0.0002078,53.2178,29.696,85.8522,274.2707,0.00015444,2.17e-05,0.0,0 STARLINK-3544,1 51803U 22017AM  24068.91466279  .00002170  00000-0  15444-3 0  9994,2 51803  53.2178  29.6960 0002078  85.8522 274.2707 15.08835454113595,6917.894,95.438,541.197,538.322,0.0
